COMMENT,ORIGINATOR,NORAD_CAT_ID,OBJECT_NAME,OBJECT_TYPE,CLASSIFICATION_TYPE,INTLDES,EPOCH,EPOCH_MICROSECONDS,MEAN_MOTION,ECCENTRICITY,INCLINATION,RA_OF_ASC_NODE,ARG_OF_PERICENTER,MEAN_ANOMALY,EPHEMERIS_TYPE,ELEMENT_SET_NO,REV_AT_EPOCH,BSTAR,MEAN_MOTION_DOT,MEAN_MOTION_DDOT,FILE,TLE_LINE0,TLE_LINE1,TLE_LINE2,OBJECT_ID,OBJECT_NUMBER,SEMIMAJOR_AXIS,PERIOD,APOGEE,PERIGEE,DECAYED
GENERATED VIA SPACETRACK.ORG API,18 SPCS,43162,SBIRS GEO 3 (USA 282),PAYLOAD,U,18009A,2024-03-29 17:50:49,312320,1.00272666,0.000198,2.458,332.7401,41.222,281.9583,0,999,2272,0,0.00000137,0,4251655,0 SBIRS GEO 3 (USA 282),1 43162U 18009A   24089.74362630  .00000137  00000-0  00000-0 0  9999,2 43162   2.4580 332.7401 0001980  41.2220 281.9583  1.00272666 22725,2018-009A,43162,42164.485,1436.084,35794.699,35778.001,0
GENERATED VIA SPACETRACK.ORG API,18 SPCS,43453,TITAN 3C TRANSTAGE DEB,DEBRIS,U,69013L,2024-03-29 17:46:03,195264,1.07405106,0.0779764,1.6981,231.2458,214.0817,140.2819,0,999,2334,0,-0.00000078,0,4251655,0 TITAN 3C TRANSTAGE DEB,1 43453U 69013L   24089.74031476 -.00000078  00000-0  00000-0 0  9999,2 43453   1.6981 231.2458 0779764 214.0817 140.2819  1.07405106 23345,1969-013L,43453,40276.515,1340.718,37038.998,30757.763,0
GENERATED VIA SPACETRACK.ORG API,18 SPCS,43453,TITAN 3C TRANSTAGE DEB,DEBRIS,U,69013L,2024-03-29 17:45:57,934368,1.07404641,0.0784625,1.6985,231.2122,214.1292,140.1946,0,999,2334,0,-0.00000078,0,4253434,0 TITAN 3C TRANSTAGE DEB,1 43453U 69013L   24089.74025387 -.00000078  00000-0  00000+0 0  9992,2 43453   1.6985 231.2122 0784625 214.1292 140.1946  1.07404641 23340,1969-013L,43453,40276.632,1340.724,37058.702,30738.291,0
GENERATED VIA SPACETRACK.ORG API,18 SPCS,43453,TITAN 3C TRANSTAGE DEB,DEBRIS,U,69013L,2024-03-29 17:45:57,934368,1.07404641,0.0784625,1.6985,231.2122,214.1292,140.1946,0,999,2334,0,-0.00000078,0,4253807,0 TITAN 3C TRANSTAGE DEB,1 43453U 69013L   24089.74025387 -.00000078  00000-0  00000-0 0  9993,2 43453   1.6985 231.2122 0784625 214.1292 140.1946  1.07404641 23340,1969-013L,43453,40276.632,1340.724,37058.702,30738.291,0
GENERATED VIA SPACETRACK.ORG API,18 SPCS,43453,TITAN 3C TRANSTAGE DEB,DEBRIS,U,69013L,2024-03-29 17:45:50,724288,1.07404965,0.0785052,1.6983,231.1977,214.1405,140.179,0,999,2334,0,-0.00000078,0,4254046,0 TITAN 3C TRANSTAGE DEB,1 43453U 69013L   24089.74017042 -.00000078  00000-0  00000+0 0  9991,2 43453   1.6983 231.1977 0785052 214.1405 140.1790  1.07404965 23342,1969-013L,43453,40276.551,1340.720,37060.334,30736.497,0
GENERATED VIA SPACETRACK.ORG API,18 SPCS,43453,TITAN 3C TRANSTAGE DEB,DEBRIS,U,69013L,2024-03-29 17:45:50,724288,1.07404965,0.0785052,1.6983,231.1977,214.1405,140.179,0,999,2335,0,-0.00000078,0,4254317,0 TITAN 3C TRANSTAGE DEB,1 43453U 69013L   24089.74017042 -.00000078  00000-0  00000-0 0  9992,2 43453   1.6983 231.1977 0785052 214.1405 140.1790  1.07404965 23353,1969-013L,43453,40276.551,1340.720,37060.334,30736.497,0
GENERATED VIA SPACETRACK.ORG API,18 SPCS,43454,TITAN 3C TRANSTAGE DEB,DEBRIS,U,69013M,2024-03-29 15:36:01,746144,1.02843589,0.0561355,1.4123,245.2585,214.3358,141.2324,0,999,2230,0,0.00000039,0,4253807,0 TITAN 3C TRANSTAGE DEB,1 43454U 69013M   24089.65002021  .00000039  00000-0  00000-0 0  9990,2 43454   1.4123 245.2585 0561355 214.3358 141.2324  1.02843589 22309,1969-013M,43454,41458.828,1400.185,37408.005,32753.381,0
GENERATED VIA SPACETRACK.ORG API,18 SPCS,42915,TDRS 13,PAYLOAD,U,17047A,2024-03-29 15:06:56,604384,1.0027237,0.0015329,3.7082,342.9647,105.7417,314.0275,0,999,2423,0,-0.00000091,0,4251655,0 TDRS 13,1 42915U 17047A   24089.62982181 -.00000091  00000-0  00000-0 0  9991,2 42915   3.7082 342.9647 0015329 105.7417 314.0275  1.00272370 24238,2017-047A,42915,42164.568,1436.089,35851.067,35721.799,0
GENERATED VIA SPACETRACK.ORG API,18 SPCS,28945,SPAINSAT,PAYLOAD,U,06007A,2024-03-29 13:30:09,980064,1.00273631,0.0002783,0.0314,238.561,103.6579,17.7722,0,999,6609,0,-0.00000206,0,4250851,0 SPAINSAT,1 28945U 06007A   24089.56261551 -.00000206  00000-0  00000+0 0  9993,2 28945   0.0314 238.5610 0002783 103.6579  17.7722  1.00273631 66094,2006-007A,28945,42164.214,1436.070,35797.814,35774.345,0
GENERATED VIA SPACETRACK.ORG API,18 SPCS,28945,SPAINSAT,PAYLOAD,U,06007A,2024-03-29 13:30:09,980064,1.00273631,0.0002783,0.0314,238.561,103.6579,17.7722,0,999,6610,0,-0.00000206,0,4251655,0 SPAINSAT,1 28945U 06007A   24089.56261551 -.00000206  00000-0  00000-0 0  9994,2 28945   0.0314 238.5610 0002783 103.6579  17.7722  1.00273631 66106,2006-007A,28945,42164.214,1436.070,35797.814,35774.345,0
GENERATED VIA SPACETRACK.ORG API,18 SPCS,28945,SPAINSAT,PAYLOAD,U,06007A,2024-03-29 13:30:09,874656,1.00273727,0.0002785,0.0311,237.662,105.0457,17.2836,0,999,6610,0,-0.00000206,0,4253807,0 SPAINSAT,1 28945U 06007A   24089.56261429 -.00000206  00000-0  00000-0 0  9998,2 28945   0.0311 237.6620 0002785 105.0457  17.2836  1.00273727 66104,2006-007A,28945,42164.188,1436.069,35797.795,35774.310,0
GENERATED VIA SPACETRACK.ORG API,18 SPCS,29055,ASTRA 1KR,PAYLOAD,U,06012A,2024-03-29 13:12:42,544224,1.00274923,0.0001847,0.0131,269.0046,49.6432,86.1628,0,999,3759,0,0.0000013,0,4250244,0 ASTRA 1KR,1 29055U 06012A   24089.55049241  .00000130  00000-0  00000-0 0  9997,2 29055   0.0131 269.0046 0001847  49.6432  86.1628  1.00274923 37596,2006-012A,29055,42163.852,1436.052,35793.505,35777.930,0
GENERATED VIA SPACETRACK.ORG API,18 SPCS,44479,AMOS 17,PAYLOAD,U,19050A,2024-03-29 13:12:42,544224,1.00275079,0.0001689,0.0191,159.8383,242.3899,0.3939,0,999,1706,0,0.00000119,0,4250244,0 AMOS 17,1 44479U 19050A   24089.55049241  .00000119  00000-0  00000-0 0  9997,2 44479   0.0191 159.8383 0001689 242.3899   0.3939  1.00275079 17068,2019-050A,44479,42163.809,1436.050,35792.795,35778.552,0
GENERATED VIA SPACETRACK.ORG API,18 SPCS,44307,YAMAL 601,PAYLOAD,U,19031A,2024-03-29 11:58:05,598624,1.00273452,0.000226,0.0121,202.0737,171.3555,42.4756,0,999,1779,0,0.00000129,0,4250244,0 YAMAL 601,1 44307U 19031A   24089.49867591  .00000129  00000-0  00000-0 0  9996,2 44307   0.0121 202.0737 0002260 171.3555  42.4756  1.00273452 17798,2019-031A,44307,42164.265,1436.073,35795.659,35776.601,0
GENERATED VIA SPACETRACK.ORG API,18 SPCS,41469,IRNSS 1G,PAYLOAD,U,16027A,2024-03-29 11:44:42,738720,1.00278651,0.0005156,3.262,122.0877,309.1194,61.7441,0,999,2906,0,-0.00000324,0,4250244,0 IRNSS 1G,1 41469U 16027A   24089.48938355 -.00000324  00000-0  00000-0 0  9998,2 41469   3.2620 122.0877 0005156 309.1194  61.7441  1.00278651 29060,2016-027A,41469,42162.807,1435.999,35806.411,35762.933,0
GENERATED VIA SPACETRACK.ORG API,18 SPCS,33373,NIMIQ 4,PAYLOAD,U,08044A,2024-03-29 11:20:35,313216,1.00271993,0.0001955,0.0271,116.2162,246.4366,272.8377,0,999,5671,0,-0.00000211,0,4249997,0 NIMIQ 4,1 33373U 08044A   24089.47263094 -.00000211  00000-0  00000+0 0  9997,2 33373   0.0271 116.2162 0001955 246.4366 272.8377  1.00271993 56718,2008-044A,33373,42164.674,1436.094,35794.782,35778.295,0
GENERATED VIA SPACETRACK.ORG API,18 SPCS,33373,NIMIQ 4,PAYLOAD,U,08044A,2024-03-29 11:20:35,313216,1.00271993,0.0001955,0.0271,116.2162,246.4366,272.8377,0,999,5686,0,-0.0000021,0,4250244,0 NIMIQ 4,1 33373U 08044A   24089.47263094 -.00000210  00000-0  00000-0 0  9997,2 33373   0.0271 116.2162 0001955 246.4366 272.8377  1.00271993 56864,2008-044A,33373,42164.674,1436.094,35794.782,35778.295,0
GENERATED VIA SPACETRACK.ORG API,18 SPCS,20253,FLTSATCOM 8 (USA 46),PAYLOAD,U,89077A,2024-03-29 11:19:12,599904,1.00261616,0.0006689,12.6595,356.0455,2.5293,124.0438,0,999,25250,0,-0.00000358,0,4250244,0 FLTSATCOM 8 (USA 46),1 20253U 89077A   24089.47167361 -.00000358  00000-0  00000-0 0  9998,2 20253  12.6595 356.0455 0006689   2.5293 124.0438  1.00261616252509,1989-077A,20253,42167.583,1436.243,35817.654,35761.242,0
GENERATED VIA SPACETRACK.ORG API,18 SPCS,25001,TITAN 3C TRANSTAGE DEB,DEBRIS,U,68081H,2024-03-29 10:32:28,396320,1.016946,0.0070472,1.018,349.8894,39.0024,171.8338,0,999,11007,0,-0.00000033,0,4250090,0 TITAN 3C TRANSTAGE DEB,1 25001U 68081H   24089.43921755 -.00000033  00000-0  00000+0 0  9996,2 25001   1.0180 349.8894 0070472  39.0024 171.8338  1.01694600110070,1968-081H,25001,41770.523,1416.004,35686.753,35098.023,0
GENERATED VIA SPACETRACK.ORG API,18 SPCS,25001,TITAN 3C TRANSTAGE DEB,DEBRIS,U,68081H,2024-03-29 10:32:28,396320,1.016946,0.0070472,1.018,349.8894,39.0024,171.8338,0,999,11008,0,-0.00000033,0,4250244,0 TITAN 3C TRANSTAGE DEB,1 25001U 68081H   24089.43921755 -.00000033  00000-0  00000-0 0  9997,2 25001   1.0180 349.8894 0070472  39.0024 171.8338  1.01694600110081,1968-081H,25001,41770.523,1416.004,35686.753,35098.023,0
GENERATED VIA SPACETRACK.ORG API,18 SPCS,23712,USA 115,PAYLOAD,U,95060A,2024-03-29 09:51:42,572160,1.00274733,0.0003087,13.7723,9.5933,344.5607,221.045,0,999,2476,0,-0.00000009,0,4250244,0 USA 115,1 23712U 95060A   24089.41090940 -.00000009  00000-0  00000-0 0  9995,2 23712  13.7723   9.5933 0003087 344.5607 221.0450  1.00274733 24766,1995-060A,23712,42163.906,1436.055,35798.787,35772.755,0
GENERATED VIA SPACETRACK.ORG API,18 SPCS,22988,USA 99,PAYLOAD,U,94009A,2024-03-29 09:42:42,831360,1.00273953,0.0003124,16.3864,36.2821,325.179,241.5286,0,999,2352,0,-0.00000187,0,4249897,0 USA 99,1 22988U 94009A   24089.40466240 -.00000187  00000-0  00000+0 0  9996,2 22988  16.3864  36.2821 0003124 325.1790 241.5286  1.00273953 23528,1994-009A,22988,42164.124,1436.066,35799.161,35772.817,0
GENERATED VIA SPACETRACK.ORG API,18 SPCS,22988,USA 99,PAYLOAD,U,94009A,2024-03-29 09:42:42,831360,1.00273953,0.0003124,16.3864,36.2821,325.179,241.5286,0,999,2484,0,-0.00000186,0,4250244,0 USA 99,1 22988U 94009A   24089.40466240 -.00000186  00000-0  00000-0 0  9996,2 22988  16.3864  36.2821 0003124 325.1790 241.5286  1.00273953 24844,1994-009A,22988,42164.124,1436.066,35799.161,35772.817,0
